{
  "type": "FeatureCollection",
  "features": [
    {
      "type": "Feature",
      "properties": {
        "norad_id": 34492,
        "name": "IRIDIUM 33 DEB",
        "group": "iridium-33-debris",
        "lat": 23.37319857683648,
        "lon": -23.7094334808439,
        "alt_km": 914.9146473619521,
        "timestamp": "2025-12-12T09:49:09.117055+00:00",
        "meta_object_name": "IRIDIUM 33 DEB",
        "meta_object_id": "1997-051GH",
        "meta_epoch": "2025-12-11T23:52:20.307072",
        "meta_mean_motion": 14.25702027,
        "meta_eccentricity": 0.0188912,
        "meta_inclination": 86.4727,
        "meta_ra_of_asc_node": 334.9304,
        "meta_arg_of_pericenter": 240.6264,
        "meta_mean_anomaly": 175.7475,
        "meta_ephemeris_type": 0,
        "meta_classification_type": "U",
        "meta_norad_cat_id": 34492,
        "meta_element_set_no": 999,
        "meta_rev_at_epoch": 85048,
        "meta_bstar": 0.0061973,
        "meta_mean_motion_dot": 0.00017773,
        "meta_mean_motion_ddot": 0,
        "tle_line1": "1 34492U 97051GH  25345.99467948  .00017773  00000+0  61973-2 0  9991",
        "tle_line2": "2 34492  86.4727 334.9304 0188912 240.6264 175.7475 14.25702027850488"
      },
      "geometry": {
        "type": "Point",
        "coordinates": [
          -23.7094334808439,
          23.37319857683648
        ]
      }
    },
    {
      "type": "Feature",
      "properties": {
        "norad_id": 34497,
        "name": "IRIDIUM 33 DEB",
        "group": "iridium-33-debris",
        "lat": -77.11789027516471,
        "lon": -110.92060316531352,
        "alt_km": 800.3726803746486,
        "timestamp": "2025-12-12T09:49:09.117065+00:00",
        "meta_object_name": "IRIDIUM 33 DEB",
        "meta_object_id": "1997-051GN",
        "meta_epoch": "2025-12-12T03:42:01.901088",
        "meta_mean_motion": 14.27451136,
        "meta_eccentricity": 0.0078862,
        "meta_inclination": 86.278,
        "meta_ra_of_asc_node": 52.6518,
        "meta_arg_of_pericenter": 341.481,
        "meta_mean_anomaly": 47.7522,
        "meta_ephemeris_type": 0,
        "meta_classification_type": "U",
        "meta_norad_cat_id": 34497,
        "meta_element_set_no": 999,
        "meta_rev_at_epoch": 86875,
        "meta_bstar": 0.00094546,
        "meta_mean_motion_dot": 2.415e-05,
        "meta_mean_motion_ddot": 0,
        "tle_line1": "1 34497U 97051GN  25346.15418867  .00002415  00000+0  94546-3 0  9991",
        "tle_line2": "2 34497  86.2780  52.6518 0078862 341.4810  47.7522 14.27451136868754"
      },
      "geometry": {
        "type": "Point",
        "coordinates": [
          -110.92060316531352,
          -77.11789027516471
        ]
      }
    },
    {
      "type": "Feature",
      "properties": {
        "norad_id": 34508,
        "name": "IRIDIUM 33 DEB",
        "group": "iridium-33-debris",
        "lat": 42.76093706389862,
        "lon": 106.14851844830956,
        "alt_km": 791.093341415356,
        "timestamp": "2025-12-12T09:49:09.117076+00:00",
        "meta_object_name": "IRIDIUM 33 DEB",
        "meta_object_id": "1997-051GZ",
        "meta_epoch": "2025-12-11T20:15:42.194304",
        "meta_mean_motion": 14.38415519,
        "meta_eccentricity": 0.0066068,
        "meta_inclination": 86.3699,
        "meta_ra_of_asc_node": 103.0225,
        "meta_arg_of_pericenter": 175.8688,
        "meta_mean_anomaly": 184.307,
        "meta_ephemeris_type": 0,
        "meta_classification_type": "U",
        "meta_norad_cat_id": 34508,
        "meta_element_set_no": 999,
        "meta_rev_at_epoch": 87296,
        "meta_bstar": 0.0023452,
        "meta_mean_motion_dot": 7.356e-05,
        "meta_mean_motion_ddot": 0,
        "tle_line1": "1 34508U 97051GZ  25345.84423836  .00007356  00000+0  23452-2 0  9997",
        "tle_line2": "2 34508  86.3699 103.0225 0066068 175.8688 184.3070 14.38415519872961"
      },
      "geometry": {
        "type": "Point",
        "coordinates": [
          106.14851844830956,
          42.76093706389862
        ]
      }
    },
    {
      "type": "Feature",
      "properties": {
        "norad_id": 34521,
        "name": "IRIDIUM 33 DEB",
        "group": "iridium-33-debris",
        "lat": -11.745705812596638,
        "lon": -148.55241830332466,
        "alt_km": 685.8643170309433,
        "timestamp": "2025-12-12T09:49:09.117087+00:00",
        "meta_object_name": "IRIDIUM 33 DEB",
        "meta_object_id": "1997-051HN",
        "meta_epoch": "2025-12-12T04:01:21.502272",
        "meta_mean_motion": 14.63360371,
        "meta_eccentricity": 0.0001477,
        "meta_inclination": 86.3802,
        "meta_ra_of_asc_node": 30.7997,
        "meta_arg_of_pericenter": 216.2058,
        "meta_mean_anomaly": 143.9054,
        "meta_ephemeris_type": 0,
        "meta_classification_type": "U",
        "meta_norad_cat_id": 34521,
        "meta_element_set_no": 999,
        "meta_rev_at_epoch": 88464,
        "meta_bstar": 0.0013718,
        "meta_mean_motion_dot": 7.108e-05,
        "meta_mean_motion_ddot": 0,
        "tle_line1": "1 34521U 97051HN  25346.16760998  .00007108  00000+0  13718-2 0  9990",
        "tle_line2": "2 34521  86.3802  30.7997 0001477 216.2058 143.9054 14.63360371884642"
      },
      "geometry": {
        "type": "Point",
        "coordinates": [
          -148.55241830332466,
          -11.745705812596638
        ]
      }
    },
    {
      "type": "Feature",
      "properties": {
        "norad_id": 34525,
        "name": "IRIDIUM 33 DEB",
        "group": "iridium-33-debris",
        "lat": 34.76365536866105,
        "lon": 49.50803211415913,
        "alt_km": 744.3789343182925,
        "timestamp": "2025-12-12T09:49:09.117097+00:00",
        "meta_object_name": "IRIDIUM 33 DEB",
        "meta_object_id": "1997-051HS",
        "meta_epoch": "2025-12-11T22:34:35.054400",
        "meta_mean_motion": 14.42903085,
        "meta_eccentricity": 0.0006662,
        "meta_inclination": 86.3729,
        "meta_ra_of_asc_node": 47.1846,
        "meta_arg_of_pericenter": 97.1091,
        "meta_mean_anomaly": 26.1025,
        "meta_ephemeris_type": 0,
        "meta_classification_type": "U",
        "meta_norad_cat_id": 34525,
        "meta_element_set_no": 999,
        "meta_rev_at_epoch": 88076,
        "meta_bstar": 0.00059132,
        "meta_mean_motion_dot": 1.995e-05,
        "meta_mean_motion_ddot": 0,
        "tle_line1": "1 34525U 97051HS  25345.94068350  .00001995  00000+0  59132-3 0  9991",
        "tle_line2": "2 34525  86.3729  47.1846 0006662  97.1091  26.1025 14.42903085880764"
      },
      "geometry": {
        "type": "Point",
        "coordinates": [
          49.50803211415913,
          34.76365536866105
        ]
      }
    },
    {
      "type": "Feature",
      "properties": {
        "norad_id": 34529,
        "name": "IRIDIUM 33 DEB",
        "group": "iridium-33-debris",
        "lat": -67.19824810608073,
        "lon": 26.853500789188114,
        "alt_km": 765.2167294590281,
        "timestamp": "2025-12-12T09:49:09.117107+00:00",
        "meta_object_name": "IRIDIUM 33 DEB",
        "meta_object_id": "1997-051HW",
        "meta_epoch": "2025-12-11T20:47:45.904128",
        "meta_mean_motion": 14.40614839,
        "meta_eccentricity": 0.00047,
        "meta_inclination": 86.3641,
        "meta_ra_of_asc_node": 35.7841,
        "meta_arg_of_pericenter": 179.4725,
        "meta_mean_anomaly": 180.648,
        "meta_ephemeris_type": 0,
        "meta_classification_type": "U",
        "meta_norad_cat_id": 34529,
        "meta_element_set_no": 999,
        "meta_rev_at_epoch": 88129,
        "meta_bstar": 0.00017623,
        "meta_mean_motion_dot": 5.82e-06,
        "meta_mean_motion_ddot": 0,
        "tle_line1": "1 34529U 97051HW  25345.86650352  .00000582  00000+0  17623-3 0  9995",
        "tle_line2": "2 34529  86.3641  35.7841 0004700 179.4725 180.6480 14.40614839881292"
      },
      "geometry": {
        "type": "Point",
        "coordinates": [
          26.853500789188114,
          -67.19824810608073
        ]
      }
    },
    {
      "type": "Feature",
      "properties": {
        "norad_id": 34538,
        "name": "IRIDIUM 33 DEB",
        "group": "iridium-33-debris",
        "lat": 52.438349635445945,
        "lon": -179.15552170459233,
        "alt_km": 766.7249968320912,
        "timestamp": "2025-12-12T09:49:09.117118+00:00",
        "meta_object_name": "IRIDIUM 33 DEB",
        "meta_object_id": "1997-051JF",
        "meta_epoch": "2025-12-11T12:17:49.059168",
        "meta_mean_motion": 14.42637449,
        "meta_eccentricity": 0.00329249,
        "meta_inclination": 86.2774,
        "meta_ra_of_asc_node": 6.0934,
        "meta_arg_of_pericenter": 332.21,
        "meta_mean_anomaly": 180.6153,
        "meta_ephemeris_type": 0,
        "meta_classification_type": "U",
        "meta_norad_cat_id": 34538,
        "meta_element_set_no": 999,
        "meta_rev_at_epoch": 87738,
        "meta_bstar": 0.0015467501,
        "meta_mean_motion_dot": 5.192e-05,
        "meta_mean_motion_ddot": 0,
        "tle_line1": "1 34538U 97051JF  25345.51237337  .00005192  00000+0  15468-2 0  9997",
        "tle_line2": "2 34538  86.2774   6.0934 0032924 332.2100 180.6153 14.42637449877383"
      },
      "geometry": {
        "type": "Point",
        "coordinates": [
          -179.15552170459233,
          52.438349635445945
        ]
      }
    }
  ]
}